start=new Date('2022-07-08T00:00:00.000Z').valueOf();
sats=[{"SITE":"AFETR","EPHEMERIS_TYPE":"0","GP_ID":"207597785","MEAN_MOTION_DOT":"0.00001048","APOAPSIS":"548.229","OBJECT_ID":"2020-062AP","MEAN_ELEMENT_THEORY":"SGP4","REF_FRAME":"TEME","RA_OF_ASC_NODE":"232.4204","CLASSIFICATION_TYPE":"U","PERIAPSIS":"546.184","LAUNCH_DATE":"2020-09-03","REV_AT_EPOCH":"10279","ELEMENT_SET_NO":"999","TLE_LINE1":"1 46362U 20062AP  22188.50913121  .00001048  00000-0  89210-4 0  9991","ECCENTRICITY":"0.00014760","BSTAR":"0.00008921000000","TLE_LINE2":"2 46362  53.0537 232.4204 0001476  56.4641 303.6489 15.06402351102796","TIME_SYSTEM":"UTC","FILE":"3509293","MEAN_MOTION_DDOT":"0.0000000000000","NORAD_CAT_ID":"46362","COUNTRY_CODE":"US","OBJECT_NAME":"STARLINK-1726","ARG_OF_PERICENTER":"56.4641","PERIOD":"95.592","OBJECT_TYPE":"PAYLOAD","MEAN_MOTION":"15.06402351","INCLINATION":"53.0537","RCS_SIZE":"LARGE","EPOCH":"2022-07-07T12:13:08.936544","CENTER_NAME":"EARTH","MEAN_ANOMALY":"303.6489","SEMIMAJOR_AXIS":"6925.341","DECAY_DATE":null},{"PERIAPSIS":"545.983","CLASSIFICATION_TYPE":"U","RA_OF_ASC_NODE":"230.9404","BSTAR":"0.00037485000000","TLE_LINE1":"1 46363U 20062AQ  22188.83256294  .00005307  00000-0  37485-3 0  9997","ECCENTRICITY":"0.00017580","ELEMENT_SET_NO":"999","REV_AT_EPOCH":"10284","LAUNCH_DATE":"2020-09-03","OBJECT_ID":"2020-062AQ","APOAPSIS":"548.418","GP_ID":"207627491","MEAN_MOTION_DOT":"0.00005307","EPHEMERIS_TYPE":"0","SITE":"AFETR","REF_FRAME":"TEME","MEAN_ELEMENT_THEORY":"SGP4","INCLINATION":"53.0528","MEAN_MOTION":"15.06404196","OBJECT_TYPE":"PAYLOAD","DECAY_DATE":null,"SEMIMAJOR_AXIS":"6925.336","CENTER_NAME":"EARTH","MEAN_ANOMALY":"301.4795","EPOCH":"2022-07-07T19:58:53.438016","RCS_SIZE":"LARGE","MEAN_MOTION_DDOT":"0.0000000000000","FILE":"3509470","TIME_SYSTEM":"UTC","TLE_LINE2":"2 46363  53.0528 230.9404 0001758  58.6365 301.4795 15.06404196102843","ARG_OF_PERICENTER":"58.6365","PERIOD":"95.592","OBJECT_NAME":"STARLINK-1739","COUNTRY_CODE":"US","NORAD_CAT_ID":"46363"},{"TLE_LINE2":"2 46364  53.0538 211.7392 0001077 141.9323 218.1743 15.06392405103108","TIME_SYSTEM":"UTC","MEAN_MOTION_DDOT":"0.0000000000000","FILE":"3509470","NORAD_CAT_ID":"46364","COUNTRY_CODE":"US","OBJECT_NAME":"STARLINK-1763","ARG_OF_PERICENTER":"141.9323","PERIOD":"95.593","OBJECT_TYPE":"PAYLOAD","INCLINATION":"53.0538","MEAN_MOTION":"15.06392405","RCS_SIZE":"LARGE","SEMIMAJOR_AXIS":"6925.372","EPOCH":"2022-07-07T18:27:27.298080","CENTER_NAME":"EARTH","MEAN_ANOMALY":"218.1743","DECAY_DATE":null,"SITE":"AFETR","EPHEMERIS_TYPE":"0","APOAPSIS":"547.983","MEAN_MOTION_DOT":"0.00001171","GP_ID":"207627737","OBJECT_ID":"2020-062AR","MEAN_ELEMENT_THEORY":"SGP4","REF_FRAME":"TEME","RA_OF_ASC_NODE":"211.7392","CLASSIFICATION_TYPE":"U","PERIAPSIS":"546.491","LAUNCH_DATE":"2020-09-03","REV_AT_EPOCH":"10310","ELEMENT_SET_NO":"999","ECCENTRICITY":"0.00010770","TLE_LINE1":"1 46364U 20062AR  22188.76906595  .00001171  00000-0  97529-4 0  9997","BSTAR":"0.00009752900000"},{"FILE":"3509470","MEAN_MOTION_DDOT":"0.0000000000000","TIME_SYSTEM":"UTC","TLE_LINE2":"2 46365  53.0539 231.0515 0001332  65.4793 294.6335 15.06400768102834","ARG_OF_PERICENTER":"65.4793","PERIOD":"95.592","OBJECT_NAME":"STARLINK-1550","COUNTRY_CODE":"US","NORAD_CAT_ID":"46365","MEAN_MOTION":"15.06400768","INCLINATION":"53.0539","OBJECT_TYPE":"PAYLOAD","DECAY_DATE":null,"CENTER_NAME":"EARTH","MEAN_ANOMALY":"294.6335","EPOCH":"2022-07-07T19:28:23.561184","SEMIMAJOR_AXIS":"6925.346","RCS_SIZE":"LARGE","OBJECT_ID":"2020-062AS","MEAN_MOTION_DOT":"0.00000099","GP_ID":"207628465","APOAPSIS":"548.134","EPHEMERIS_TYPE":"0","SITE":"AFETR","REF_FRAME":"TEME","MEAN_ELEMENT_THEORY":"SGP4","PERIAPSIS":"546.289","CLASSIFICATION_TYPE":"U","RA_OF_ASC_NODE":"231.0515","BSTAR":"0.00002553900000","TLE_LINE1":"1 46365U 20062AS  22188.81138381  .00000099  00000-0  25539-4 0  9994","ECCENTRICITY":"0.00013320","ELEMENT_SET_NO":"999","REV_AT_EPOCH":"10283","LAUNCH_DATE":"2020-09-03"},{"NORAD_CAT_ID":"46366","COUNTRY_CODE":"US","OBJECT_NAME":"STARLINK-1651","PERIOD":"95.593","ARG_OF_PERICENTER":"66.0821","TLE_LINE2":"2 46366  53.0541 232.0007 0001473  66.0821 294.0322 15.06391097102801","TIME_SYSTEM":"UTC","FILE":"3509470","MEAN_MOTION_DDOT":"0.0000000000000","RCS_SIZE":"LARGE","MEAN_ANOMALY":"294.0322","EPOCH":"2022-07-07T14:25:52.155840","CENTER_NAME":"EARTH","SEMIMAJOR_AXIS":"6925.376","DECAY_DATE":null,"OBJECT_TYPE":"PAYLOAD","MEAN_MOTION":"15.06391097","INCLINATION":"53.0541","MEAN_ELEMENT_THEORY":"SGP4","REF_FRAME":"TEME","SITE":"AFETR","EPHEMERIS_TYPE":"0","GP_ID":"207627241","MEAN_MOTION_DOT":"0.00001082","APOAPSIS":"548.261","OBJECT_ID":"2020-062AT","LAUNCH_DATE":"2020-09-03","REV_AT_EPOCH":"10280","ELEMENT_SET_NO":"999","TLE_LINE1":"1 46366U 20062AT  22188.60129810  .00001082  00000-0  91543-4 0  9990","ECCENTRICITY":"0.00014730","BSTAR":"0.00009154300000","RA_OF_ASC_NODE":"232.0007","CLASSIFICATION_TYPE":"U","PERIAPSIS":"546.221"},{"ECCENTRICITY":"0.00014840","TLE_LINE1":"1 46368U 20062AV  22188.59987922  .00000253  00000-0  35875-4 0  9991","BSTAR":"0.00003587500000","LAUNCH_DATE":"2020-09-03","ELEMENT_SET_NO":"999","REV_AT_EPOCH":"10246","CLASSIFICATION_TYPE":"U","PERIAPSIS":"546.188","RA_OF_ASC_NODE":"256.9895","REF_FRAME":"TEME","MEAN_ELEMENT_THEORY":"SGP4","GP_ID":"207627992","MEAN_MOTION_DOT":"0.00000253","APOAPSIS":"548.243","OBJECT_ID":"2020-062AV","SITE":"AFETR","EPHEMERIS_TYPE":"0","DECAY_DATE":null,"RCS_SIZE":"LARGE","MEAN_ANOMALY":"294.3988","CENTER_NAME":"EARTH","EPOCH":"2022-07-07T14:23:49.564608","SEMIMAJOR_AXIS":"6925.351","MEAN_MOTION":"15.06399358","INCLINATION":"53.0540","OBJECT_TYPE":"PAYLOAD","OBJECT_NAME":"STARLINK-1658","ARG_OF_PERICENTER":"65.7156","PERIOD":"95.592","NORAD_CAT_ID":"46368","COUNTRY_CODE":"US","TIME_SYSTEM":"UTC","FILE":"3509470","MEAN_MOTION_DDOT":"0.0000000000000","TLE_LINE2":"2 46368  53.0540 256.9895 0001484  65.7156 294.3988 15.06399358102462"},{"EPHEMERIS_TYPE":"0","SITE":"AFETR","OBJECT_ID":"2020-062AX","APOAPSIS":"548.386","GP_ID":"207598787","MEAN_MOTION_DOT":"0.00000668","MEAN_ELEMENT_THEORY":"SGP4","REF_FRAME":"TEME","RA_OF_ASC_NODE":"257.4707","PERIAPSIS":"546.084","CLASSIFICATION_TYPE":"U","ELEMENT_SET_NO":"999","REV_AT_EPOCH":"10244","LAUNCH_DATE":"2020-09-03","BSTAR":"0.00006376100000","TLE_LINE1":"1 46370U 20062AX  22188.49761795  .00000668  00000-0  63761-4 0  9996","ECCENTRICITY":"0.00016620","TLE_LINE2":"2 46370  53.0537 257.4707 0001662  57.1305 302.9844 15.06393048102443","MEAN_MOTION_DDOT":"0.0000000000000","FILE":"3509293","TIME_SYSTEM":"UTC","COUNTRY_CODE":"US","NORAD_CAT_ID":"46370","ARG_OF_PERICENTER":"57.1305","PERIOD":"95.593","OBJECT_NAME":"STARLINK-1670","OBJECT_TYPE":"PAYLOAD","INCLINATION":"53.0537","MEAN_MOTION":"15.06393048","SEMIMAJOR_AXIS":"6925.370","CENTER_NAME":"EARTH","EPOCH":"2022-07-07T11:56:34.190880","MEAN_ANOMALY":"302.9844","RCS_SIZE":"LARGE","DECAY_DATE":null},{"CLASSIFICATION_TYPE":"U","PERIAPSIS":"546.213","RA_OF_ASC_NODE":"257.4931","ECCENTRICITY":"0.00014740","TLE_LINE1":"1 46371U 20062AY  22188.49024534  .00000316  00000-0  40113-4 0  9996","BSTAR":"0.00004011300000","LAUNCH_DATE":"2020-09-03","REV_AT_EPOCH":"10244","ELEMENT_SET_NO":"999","APOAPSIS":"548.255","GP_ID":"207598530","MEAN_MOTION_DOT":"0.00000316","OBJECT_ID":"2020-062AY","SITE":"AFETR","EPHEMERIS_TYPE":"0","REF_FRAME":"TEME","MEAN_ELEMENT_THEORY":"SGP4","INCLINATION":"53.0556","MEAN_MOTION":"15.06393426","OBJECT_TYPE":"PAYLOAD","DECAY_DATE":null,"RCS_SIZE":"LARGE","SEMIMAJOR_AXIS":"6925.369","MEAN_ANOMALY":"289.4433","EPOCH":"2022-07-07T11:45:57.197376","CENTER_NAME":"EARTH","TIME_SYSTEM":"UTC","MEAN_MOTION_DDOT":"0.0000000000000","FILE":"3509293","TLE_LINE2":"2 46371  53.0556 257.4931 0001474  70.6716 289.4433 15.06393426102444","OBJECT_NAME":"STARLINK-1688","ARG_OF_PERICENTER":"70.6716","PERIOD":"95.593","NORAD_CAT_ID":"46371","COUNTRY_CODE":"US"},{"OBJECT_NAME":"STARLINK-1689","ARG_OF_PERICENTER":"59.6412","PERIOD":"95.591","NORAD_CAT_ID":"46372","COUNTRY_CODE":"US","TIME_SYSTEM":"UTC","MEAN_MOTION_DDOT":"0.0000000000000","FILE":"3509470","TLE_LINE2":"2 46372  53.0550 276.2557 0001443  59.6412 300.4720 15.06412281102206","DECAY_DATE":null,"RCS_SIZE":"LARGE","SEMIMAJOR_AXIS":"6925.311","CENTER_NAME":"EARTH","MEAN_ANOMALY":"300.4720","EPOCH":"2022-07-07T18:21:21.915072","INCLINATION":"53.0550","MEAN_MOTION":"15.06412281","OBJECT_TYPE":"PAYLOAD","REF_FRAME":"TEME","MEAN_ELEMENT_THEORY":"SGP4","APOAPSIS":"548.175","GP_ID":"207626742","MEAN_MOTION_DOT":"0.00001330","OBJECT_ID":"2020-062AZ","SITE":"AFETR","EPHEMERIS_TYPE":"0","TLE_LINE1":"1 46372U 20062AZ  22188.76483698  .00001330  00000-0  10811-3 0  9995","ECCENTRICITY":"0.00014430","BSTAR":"0.00010811000000","LAUNCH_DATE":"2020-09-03","REV_AT_EPOCH":"10220","ELEMENT_SET_NO":"999","CLASSIFICATION_TYPE":"U","PERIAPSIS":"546.177","RA_OF_ASC_NODE":"276.2557"},{"OBJECT_NAME":"STARLINK-1711","PERIOD":"95.593","ARG_OF_PERICENTER":"90.1546","NORAD_CAT_ID":"46374","COUNTRY_CODE":"US","TIME_SYSTEM":"UTC","MEAN_MOTION_DDOT":"0.0000000000000","FILE":"3509470","TLE_LINE2":"2 46374  53.0525 206.2123 0001077  90.1546 269.9566 15.06393198103183","DECAY_DATE":null,"RCS_SIZE":"LARGE","SEMIMAJOR_AXIS":"6925.369","CENTER_NAME":"EARTH","EPOCH":"2022-07-07T18:41:18.078144","MEAN_ANOMALY":"269.9566","INCLINATION":"53.0525","MEAN_MOTION":"15.06393198","OBJECT_TYPE":"PAYLOAD","REF_FRAME":"TEME","MEAN_ELEMENT_THEORY":"SGP4","APOAPSIS":"547.980","MEAN_MOTION_DOT":"0.00000923","GP_ID":"207627492","OBJECT_ID":"2020-062BB","SITE":"AFETR","EPHEMERIS_TYPE":"0","TLE_LINE1":"1 46374U 20062BB  22188.77868146  .00000923  00000-0  80828-4 0  9996","ECCENTRICITY":"0.00010770","BSTAR":"0.00008082800000","LAUNCH_DATE":"2020-09-03","REV_AT_EPOCH":"10318","ELEMENT_SET_NO":"999","CLASSIFICATION_TYPE":"U","PERIAPSIS":"546.489","RA_OF_ASC_NODE":"206.2123"}];
